IRIDIUM 166             
1 43570U 18061B   24100.51526064  .00000186  00000+0  59515-4 0  9994
2 43570  86.4014  30.4979 0002408  79.7795 280.3672 14.34219336298928
IRIDIUM 158             
1 43571U 18061C   24100.55331596  .00000169  00000+0  53439-4 0  9993
2 43571  86.4014  30.4912 0002143  80.1448 279.9989 14.34218391298894
IRIDIUM 165             
1 43572U 18061D   24100.50891688  .00000189  00000+0  60395-4 0  9993
2 43572  86.4015  30.5409 0002165  78.1311 282.0128 14.34218610298915
IRIDIUM 155             
1 43573U 18061E   24100.54064925  .00000392  00000+0  13275-3 0  9994
2 43573  86.4011  30.4363 0002396  83.1201 277.0268 14.34218964298898
IRIDIUM 154             
1 43574U 18061F   24100.52161013  .00000377  00000+0  12760-3 0  9990
2 43574  86.4016  30.5386 0002036  89.3478 270.7952 14.34211572298938
IRIDIUM 163             
1 43575U 18061G   24100.78164091  .00000100  00000+0  28675-4 0  9995
2 43575  86.4014  30.3703 0002311  86.1296 274.0164 14.34215338298944
IRIDIUM 156             
1 43576U 18061H   24100.33766772  .00000258  00000+0  85060-4 0  9996
2 43576  86.4014  30.5619 0002236  81.0398 279.1051 14.34218912298870
IRIDIUM 164             
1 43577U 18061J   24100.52794553  .00000032  00000+0  42227-5 0  9995
2 43577  86.4013  30.5103 0001994  82.9185 277.2238 14.34217045298942
